[{"OBJECT_NAME":"TEVEL2-4","OBJECT_ID":"2025-052D","EPOCH":"2026-03-09T16:39:37.129536","MEAN_MOTION":15.30925813,"ECCENTRICITY":0.0004733,"INCLINATION":97.4009,"RA_OF_ASC_NODE":325.1237,"ARG_OF_PERICENTER":95.3468,"MEAN_ANOMALY":264.8313,"EPHEMERIS_TYPE":0,"CLASSIFICATION_TYPE":"U","NORAD_CAT_ID":63213,"ELEMENT_SET_NO":999,"REV_AT_EPOCH":5487,"BSTAR":0.00070362503,"MEAN_MOTION_DOT":0.0002099,"MEAN_MOTION_DDOT":0},{"OBJECT_NAME":"STARLINK-36369","OBJECT_ID":"2026-026C","EPOCH":"2026-03-09T22:00:01.999584","MEAN_MOTION":15.48557021,"ECCENTRICITY":0.00018859,"INCLINATION":97.2847,"RA_OF_ASC_NODE":123.4317,"ARG_OF_PERICENTER":70.9847,"MEAN_ANOMALY":342.6499,"EPHEMERIS_TYPE":0,"CLASSIFICATION_TYPE":"U","NORAD_CAT_ID":67723,"ELEMENT_SET_NO":999,"REV_AT_EPOCH":535,"BSTAR":-0.041406424,"MEAN_MOTION_DOT":-0.01972119,"MEAN_MOTION_DDOT":0}]
